IRIDIUM 136             
1 42962U 17061H   24214.82438370  .00000340  00000+0  11428-3 0  9991
2 42962  86.3990 311.2475 0002539  97.4002 262.7483 14.34218826356740
